start=new Date('2023-03-10T00:00:00.000Z').valueOf();
sats=[{"DECAY_DATE":null,"ELEMENT_SET_NO":"999","MEAN_MOTION_DDOT":"0.0000000000000","NORAD_CAT_ID":"48450","MEAN_ANOMALY":"268.7727","CENTER_NAME":"EARTH","ARG_OF_PERICENTER":"91.3438","OBJECT_ID":"2021-040Y","PERIOD":"95.591","MEAN_ELEMENT_THEORY":"SGP4","REV_AT_EPOCH":"10137","LAUNCH_DATE":"2021-05-09","COUNTRY_CODE":"US","RCS_SIZE":"LARGE","RA_OF_ASC_NODE":"63.6559","MEAN_MOTION_DOT":"0.00009141","OBJECT_NAME":"STARLINK-2660","APOAPSIS":"548.240","EPHEMERIS_TYPE":"0","MEAN_MOTION":"15.06412379","FILE":"3855951","EPOCH":"2023-03-09T06:22:31.524960","PERIAPSIS":"546.111","BSTAR":"0.00063155000000","INCLINATION":"53.0534","CLASSIFICATION_TYPE":"U","TIME_SYSTEM":"UTC","SITE":"AFETR","ECCENTRICITY":"0.00015370","SEMIMAJOR_AXIS":"6925.311","TLE_LINE1":"1 48450U 21040Y   23068.26564265  .00009141  00000-0  63155-3 0  9991","REF_FRAME":"TEME","TLE_LINE2":"2 48450  53.0534  63.6559 0001537  91.3438 268.7727 15.06412379101370","GP_ID":"227767215","OBJECT_TYPE":"PAYLOAD"},{"LAUNCH_DATE":"2021-05-09","REV_AT_EPOCH":"10137","COUNTRY_CODE":"US","PERIOD":"95.591","MEAN_ELEMENT_THEORY":"SGP4","RCS_SIZE":"LARGE","RA_OF_ASC_NODE":"63.6878","MEAN_MOTION_DOT":"0.00010335","DECAY_DATE":null,"ELEMENT_SET_NO":"999","MEAN_MOTION_DDOT":"0.0000000000000","NORAD_CAT_ID":"48451","OBJECT_ID":"2021-040Z","MEAN_ANOMALY":"267.1412","CENTER_NAME":"EARTH","ARG_OF_PERICENTER":"92.9732","SITE":"AFETR","ECCENTRICITY":"0.00013560","TLE_LINE1":"1 48451U 21040Z   23068.26470156  .00010335  00000-0  71148-3 0  9995","SEMIMAJOR_AXIS":"6925.315","OBJECT_TYPE":"PAYLOAD","REF_FRAME":"TEME","GP_ID":"227767970","TLE_LINE2":"2 48451  53.0526  63.6878 0001356  92.9732 267.1412 15.06410819101370","EPHEMERIS_TYPE":"0","MEAN_MOTION":"15.06410819","FILE":"3855951","OBJECT_NAME":"STARLINK-2652","APOAPSIS":"548.119","INCLINATION":"53.0526","CLASSIFICATION_TYPE":"U","TIME_SYSTEM":"UTC","EPOCH":"2023-03-09T06:21:10.214784","PERIAPSIS":"546.241","BSTAR":"0.00071148000000"},{"TLE_LINE1":"1 48452U 21040AA  23068.39464572  .00012722  00000-0  87096-3 0  9996","SEMIMAJOR_AXIS":"6925.291","ECCENTRICITY":"0.00016300","SITE":"AFETR","GP_ID":"227766720","TLE_LINE2":"2 48452  53.0528  63.0458 0001630 103.6953 256.4218 15.06418738101396","REF_FRAME":"TEME","OBJECT_TYPE":"PAYLOAD","APOAPSIS":"548.285","OBJECT_NAME":"STARLINK-2703","EPHEMERIS_TYPE":"0","MEAN_MOTION":"15.06418738","FILE":"3855951","BSTAR":"0.00087096000000","EPOCH":"2023-03-09T09:28:17.390208","PERIAPSIS":"546.027","CLASSIFICATION_TYPE":"U","TIME_SYSTEM":"UTC","INCLINATION":"53.0528","PERIOD":"95.591","MEAN_ELEMENT_THEORY":"SGP4","COUNTRY_CODE":"US","LAUNCH_DATE":"2021-05-09","REV_AT_EPOCH":"10139","MEAN_MOTION_DOT":"0.00012722","RA_OF_ASC_NODE":"63.0458","RCS_SIZE":"LARGE","ELEMENT_SET_NO":"999","NORAD_CAT_ID":"48452","MEAN_MOTION_DDOT":"0.0000000000000","DECAY_DATE":null,"ARG_OF_PERICENTER":"103.6953","CENTER_NAME":"EARTH","MEAN_ANOMALY":"256.4218","OBJECT_ID":"2021-040AA"},{"RA_OF_ASC_NODE":"63.0914","MEAN_MOTION_DOT":"0.00023962","RCS_SIZE":"LARGE","COUNTRY_CODE":"US","LAUNCH_DATE":"2021-05-09","REV_AT_EPOCH":"10139","MEAN_ELEMENT_THEORY":"SGP4","PERIOD":"95.591","OBJECT_ID":"2021-040AB","CENTER_NAME":"EARTH","ARG_OF_PERICENTER":"106.2912","MEAN_ANOMALY":"253.8246","MEAN_MOTION_DDOT":"0.0000000000000","NORAD_CAT_ID":"48453","ELEMENT_SET_NO":"999","DECAY_DATE":null,"OBJECT_TYPE":"PAYLOAD","GP_ID":"227766969","TLE_LINE2":"2 48453  53.0524  63.0914 0001536 106.2912 253.8246 15.06422626101392","REF_FRAME":"TEME","SEMIMAJOR_AXIS":"6925.279","TLE_LINE1":"1 48453U 21040AB  23068.39096252  .00023962  00000-0  16211-2 0  9991","SITE":"AFETR","ECCENTRICITY":"0.00015360","CLASSIFICATION_TYPE":"U","TIME_SYSTEM":"UTC","INCLINATION":"53.0524","BSTAR":"0.00162110000000","PERIAPSIS":"546.080","EPOCH":"2023-03-09T09:22:59.161728","MEAN_MOTION":"15.06422626","FILE":"3855951","EPHEMERIS_TYPE":"0","APOAPSIS":"548.208","OBJECT_NAME":"STARLINK-2620"},{"DECAY_DATE":null,"NORAD_CAT_ID":"48454","MEAN_MOTION_DDOT":"0.0000000000000","ELEMENT_SET_NO":"999","OBJECT_ID":"2021-040AC","MEAN_ANOMALY":"255.3356","ARG_OF_PERICENTER":"104.7781","CENTER_NAME":"EARTH","LAUNCH_DATE":"2021-05-09","REV_AT_EPOCH":"10139","COUNTRY_CODE":"US","MEAN_ELEMENT_THEORY":"SGP4","PERIOD":"95.591","RCS_SIZE":"LARGE","MEAN_MOTION_DOT":"0.00016519","RA_OF_ASC_NODE":"63.1064","MEAN_MOTION":"15.06425826","FILE":"3855951","EPHEMERIS_TYPE":"0","OBJECT_NAME":"STARLINK-2654","APOAPSIS":"548.057","INCLINATION":"53.0552","TIME_SYSTEM":"UTC","CLASSIFICATION_TYPE":"U","EPOCH":"2023-03-09T09:17:40.664544","PERIAPSIS":"546.212","BSTAR":"0.00112450000000","SITE":"AFETR","ECCENTRICITY":"0.00013320","SEMIMAJOR_AXIS":"6925.269","TLE_LINE1":"1 48454U 21040AC  23068.38727621  .00016519  00000-0  11245-2 0  9994","OBJECT_TYPE":"PAYLOAD","REF_FRAME":"TEME","GP_ID":"227767716","TLE_LINE2":"2 48454  53.0552  63.1064 0001332 104.7781 255.3356 15.06425826101396"},{"RCS_SIZE":"LARGE","MEAN_MOTION_DOT":"0.00027583","RA_OF_ASC_NODE":"61.6354","PERIOD":"95.591","MEAN_ELEMENT_THEORY":"SGP4","REV_AT_EPOCH":"10143","LAUNCH_DATE":"2021-05-09","COUNTRY_CODE":"US","MEAN_ANOMALY":"272.3208","ARG_OF_PERICENTER":"87.8039","CENTER_NAME":"EARTH","OBJECT_ID":"2021-040AD","DECAY_DATE":null,"ELEMENT_SET_NO":"999","NORAD_CAT_ID":"48455","MEAN_MOTION_DDOT":"0.0000000000000","REF_FRAME":"TEME","GP_ID":"227767470","TLE_LINE2":"2 48455  53.0539  61.6354 0002255  87.8039 272.3208 15.06419725101430","OBJECT_TYPE":"PAYLOAD","SITE":"AFETR","ECCENTRICITY":"0.00022550","TLE_LINE1":"1 48455U 21040AD  23068.71533001  .00027583  00000-0  18624-2 0  9990","SEMIMAJOR_AXIS":"6925.288","PERIAPSIS":"545.591","EPOCH":"2023-03-09T17:10:04.512864","BSTAR":"0.00186240000000","INCLINATION":"53.0539","CLASSIFICATION_TYPE":"U","TIME_SYSTEM":"UTC","OBJECT_NAME":"STARLINK-2497","APOAPSIS":"548.715","EPHEMERIS_TYPE":"0","FILE":"3855951","MEAN_MOTION":"15.06419725"},{"OBJECT_TYPE":"PAYLOAD","TLE_LINE2":"2 48456  53.0535  61.6517 0001299  89.7520 270.3618 15.06425660101439","GP_ID":"227766220","REF_FRAME":"TEME","SEMIMAJOR_AXIS":"6925.270","TLE_LINE1":"1 48456U 21040AE  23068.71164258  .00031919  00000-0  21506-2 0  9996","ECCENTRICITY":"0.00012990","SITE":"AFETR","TIME_SYSTEM":"UTC","CLASSIFICATION_TYPE":"U","INCLINATION":"53.0535","BSTAR":"0.00215060000000","EPOCH":"2023-03-09T17:04:45.918912","PERIAPSIS":"546.235","MEAN_MOTION":"15.06425660","FILE":"3855951","EPHEMERIS_TYPE":"0","APOAPSIS":"548.035","OBJECT_NAME":"STARLINK-2508","MEAN_MOTION_DOT":"0.00031919","RA_OF_ASC_NODE":"61.6517","RCS_SIZE":"LARGE","COUNTRY_CODE":"US","LAUNCH_DATE":"2021-05-09","REV_AT_EPOCH":"10143","MEAN_ELEMENT_THEORY":"SGP4","PERIOD":"95.591","OBJECT_ID":"2021-040AE","ARG_OF_PERICENTER":"89.7520","CENTER_NAME":"EARTH","MEAN_ANOMALY":"270.3618","MEAN_MOTION_DDOT":"0.0000000000000","NORAD_CAT_ID":"48456","ELEMENT_SET_NO":"999","DECAY_DATE":null},{"CENTER_NAME":"EARTH","ARG_OF_PERICENTER":"90.5206","MEAN_ANOMALY":"269.5996","OBJECT_ID":"2021-040AG","ELEMENT_SET_NO":"999","NORAD_CAT_ID":"48458","MEAN_MOTION_DDOT":"0.0000000000000","DECAY_DATE":null,"MEAN_MOTION_DOT":"0.00021490","RA_OF_ASC_NODE":"66.6827","RCS_SIZE":"LARGE","PERIOD":"95.591","MEAN_ELEMENT_THEORY":"SGP4","COUNTRY_CODE":"US","LAUNCH_DATE":"2021-05-09","REV_AT_EPOCH":"10208","BSTAR":"0.00145670000000","PERIAPSIS":"545.885","EPOCH":"2023-03-09T17:22:41.725920","CLASSIFICATION_TYPE":"U","TIME_SYSTEM":"UTC","INCLINATION":"53.0533","APOAPSIS":"548.461","OBJECT_NAME":"STARLINK-2698","EPHEMERIS_TYPE":"0","FILE":"3855951","MEAN_MOTION":"15.06413176","TLE_LINE2":"2 48458  53.0533  66.6827 0001860  90.5206 269.5996 15.06413176102083","GP_ID":"227766469","REF_FRAME":"TEME","OBJECT_TYPE":"PAYLOAD","TLE_LINE1":"1 48458U 21040AG  23068.72409405  .00021490  00000-0  14567-2 0  9997","SEMIMAJOR_AXIS":"6925.308","ECCENTRICITY":"0.00018600","SITE":"AFETR"},{"MEAN_ELEMENT_THEORY":"SGP4","PERIOD":"95.592","COUNTRY_CODE":"US","LAUNCH_DATE":"2021-05-09","REV_AT_EPOCH":"10137","RA_OF_ASC_NODE":"66.9842","MEAN_MOTION_DOT":"0.00003680","RCS_SIZE":"LARGE","NORAD_CAT_ID":"48459","MEAN_MOTION_DDOT":"0.0000000000000","ELEMENT_SET_NO":"999","DECAY_DATE":null,"ARG_OF_PERICENTER":"90.2346","CENTER_NAME":"EARTH","MEAN_ANOMALY":"269.8866","OBJECT_ID":"2021-040AH","SEMIMAJOR_AXIS":"6925.337","TLE_LINE1":"1 48459U 21040AH  23068.71675554  .00003680  00000-0  26580-3 0  9997","ECCENTRICITY":"0.00019500","SITE":"AFETR","GP_ID":"227767216","TLE_LINE2":"2 48459  53.0551  66.9842 0001950  90.2346 269.8866 15.06403748101370","REF_FRAME":"TEME","OBJECT_TYPE":"PAYLOAD","APOAPSIS":"548.553","OBJECT_NAME":"STARLINK-2579","MEAN_MOTION":"15.06403748","FILE":"3855951","EPHEMERIS_TYPE":"0","BSTAR":"0.00026580000000","EPOCH":"2023-03-09T17:12:07.678656","PERIAPSIS":"545.852","TIME_SYSTEM":"UTC","CLASSIFICATION_TYPE":"U","INCLINATION":"53.0551"},{"COUNTRY_CODE":"US","LAUNCH_DATE":"2021-05-09","REV_AT_EPOCH":"10181","PERIOD":"95.593","MEAN_ELEMENT_THEORY":"SGP4","MEAN_MOTION_DOT":"0.00000618","RA_OF_ASC_NODE":"68.6318","RCS_SIZE":"LARGE","ELEMENT_SET_NO":"999","MEAN_MOTION_DDOT":"0.0000000000000","NORAD_CAT_ID":"48460","DECAY_DATE":null,"OBJECT_ID":"2021-040AJ","CENTER_NAME":"EARTH","ARG_OF_PERICENTER":"105.7019","MEAN_ANOMALY":"254.4118","SEMIMAJOR_AXIS":"6925.389","TLE_LINE1":"1 48460U 21040AJ  23068.27072565  .00000618  00000-0  60371-4 0  9998","ECCENTRICITY":"0.00013400","SITE":"AFETR","OBJECT_TYPE":"PAYLOAD","GP_ID":"227767971","TLE_LINE2":"2 48460  53.0521  68.6318 0001340 105.7019 254.4118 15.06386795101819","REF_FRAME":"TEME","EPHEMERIS_TYPE":"0","FILE":"3855951","MEAN_MOTION":"15.06386795","APOAPSIS":"548.182","OBJECT_NAME":"STARLINK-2582","TIME_SYSTEM":"UTC","CLASSIFICATION_TYPE":"U","INCLINATION":"53.0521","BSTAR":"0.00006037100000","EPOCH":"2023-03-09T06:29:50.696160","PERIAPSIS":"546.326"}];
